{
    "links": {
        "self": "http://www.neowsapp.com/rest/v1/neo/3829457?api_key=iIulBulltgU6a56xZRHN4H3l9WmuAYTsLGpBGhQ2"
    },
    "id": "3829457",
    "neo_reference_id": "3829457",
    "name": "(2018 RC7)",
    "designation": "2018 RC7",
    "nasa_jpl_url": "http://ssd.jpl.nasa.gov/sbdb.cgi?sstr=3829457",
    "absolute_magnitude_h": 24.6,
    "estimated_diameter": {
        "kilometers": {
            "estimated_diameter_min": 0.0319561887,
            "estimated_diameter_max": 0.0714562102
        },
        "meters": {
            "estimated_diameter_min": 31.9561886721,
            "estimated_diameter_max": 71.4562101727
        },
        "miles": {
            "estimated_diameter_min": 0.0198566489,
            "estimated_diameter_max": 0.0444008168
        },
        "feet": {
            "estimated_diameter_min": 104.8431420431,
            "estimated_diameter_max": 234.436392583
        }
    },
    "is_potentially_hazardous_asteroid": false,
    "close_approach_data": [
        {
            "close_approach_date": "1925-08-15",
            "close_approach_date_full": "1925-Aug-15 14:10",
            "epoch_date_close_approach": -1400493000000,
            "relative_velocity": {
                "kilometers_per_second": "5.4637402796",
                "kilometers_per_hour": "19669.4650066039",
                "miles_per_hour": "12221.8406314645"
            },
            "miss_distance": {
                "astronomical": "0.0238167652",
                "lunar": "9.2647216628",
                "kilometers": "3562937.344210124",
                "miles": "2213906.6054787512"
            },
            "orbiting_body": "Mars"
        },
        {
            "close_approach_date": "1929-08-26",
            "close_approach_date_full": "1929-Aug-26 03:12",
            "epoch_date_close_approach": -1273351680000,
            "relative_velocity": {
                "kilometers_per_second": "12.3579253397",
                "kilometers_per_hour": "44488.5312227951",
                "miles_per_hour": "27643.4431922973"
            },
            "miss_distance": {
                "astronomical": "0.3832292963",
                "lunar": "149.0761962607",
                "kilometers": "57330286.448078881",
                "miles": "35623388.1203793178"
            },
            "orbiting_body": "Earth"
        },
        {
            "close_approach_date": "2018-09-07",
            "close_approach_date_full": "2018-Sep-07 00:03",
            "epoch_date_close_approach": 1536278580000,
            "relative_velocity": {
                "kilometers_per_second": "8.3194892146",
                "kilometers_per_hour": "29950.1611726319",
                "miles_per_hour": "18609.8654241834"
            },
            "miss_distance": {
                "astronomical": "0.0805054298",
                "lunar": "31.3166121922",
                "kilometers": "12043440.821514526",
                "miles": "7483447.1144354188"
            },
            "orbiting_body": "Earth"
        }
    ],
    "orbital_data": {
        "orbit_id": "4",
        "orbit_determination_date": "2018-09-22 07:58:50",
        "first_observation_date": "2018-09-13",
        "last_observation_date": "2018-09-21",
        "data_arc_in_days": 8,
        "observations_used": 37,
        "orbit_uncertainty": "8",
        "minimum_orbit_intersection": ".0732701",
        "jupiter_tisserand_invariant": "4.785",
        "epoch_osculation": "2458376.5",
        "eccentricity": ".2067778859471182",
        "semi_major_axis": "1.362855310187026",
        "inclination": "14.98178790832074",
        "ascending_node_longitude": "344.4370104965177",
        "orbital_period": "581.1296749056523",
        "perihelion_distance": "1.081046970294749",
        "perihelion_argument": "356.500736060211",
        "aphelion_distance": "1.644663650079303",
        "perihelion_time": "2458367.130735729744",
        "mean_anomaly": "5.804100673123883",
        "mean_motion": ".6194830784685824",
        "equinox": "J2000",
        "orbit_class": {
            "orbit_class_type": "AMO",
            "orbit_class_description": "Near-Earth asteroid orbits similar to that of 1221 Amor",
            "orbit_class_range": "1.017 AU < q (perihelion) < 1.3 AU"
        }
    },
    "is_sentry_object": false
}